NORAD_CAT_ID,OBJECT_NAME,OBJECT_TYPE,EPOCH,MEAN_MOTION,ECCENTRICITY,INCLINATION,RA_OF_ASC_NODE,ARG_OF_PERICENTER,MEAN_ANOMALY,BSTAR,MEAN_MOTION_DOT,MEAN_MOTION_DDOT,TLE_LINE0,TLE_LINE1,TLE_LINE2,SEMIMAJOR_AXIS,PERIOD,APOGEE,PERIGEE,DECAYED
55644.0,STARLINK-5502,PAYLOAD,2024-03-27 15:40:13,14.98331355,0.0003142,70.0002,179.8167,263.5288,96.5513,0.00020975,2.411e-05,0.0,0 STARLINK-5502,1 55644U 23021S   24087.65293660  .00002411  00000-0  20975-3 0  9994,2 55644  70.0002 179.8167 0003142 263.5288  96.5513 14.98331355 61837,6950.189,96.107,574.237,569.87,0.0
55644.0,STARLINK-5502,PAYLOAD,2024-03-27 23:40:53,14.98351456,0.0003517,69.9998,178.9737,267.899,92.1766,-0.00011327,-1.445e-05,0.0,0 STARLINK-5502,1 55644U 23021S   24087.98673055 -.00001445  00000-0 -11327-3 0  9999,2 55644  69.9998 178.9737 0003517 267.8990  92.1766 14.98351456 61885,6950.127,96.106,574.436,569.547,0.0
55644.0,STARLINK-5502,PAYLOAD,2024-03-28 12:29:58,14.98334874,0.0003494,70.0002,177.6286,267.9829,92.093,0.00034896,4.074e-05,0.0,0 STARLINK-5502,1 55644U 23021S   24088.52081091  .00004074  00000-0  34896-3 0  9998,2 55644  70.0002 177.6286 0003494 267.9829  92.0930 14.98334874 61961,6950.178,96.107,574.471,569.614,0.0
55644.0,STARLINK-5502,PAYLOAD,2024-03-29 04:31:19,14.9833952,0.000327,70.0009,175.9449,269.1876,90.8908,2.345e-05,1.87e-06,0.0,0 STARLINK-5502,1 55644U 23021S   24089.18841558  .00000187  00000-0  23450-4 0  9999,2 55644  70.0009 175.9449 0003270 269.1876  90.8908 14.98339520 62064,6950.163,96.106,574.301,569.756,0.0
55644.0,STARLINK-5502,PAYLOAD,2024-03-29 12:31:59,14.98338254,0.0003297,70.0003,175.1036,267.8606,92.2176,-2.412e-05,-3.81e-06,0.0,0 STARLINK-5502,1 55644U 23021S   24089.52221533 -.00000381  00000-0 -24120-4 0  9995,2 55644  70.0003 175.1036 0003297 267.8606  92.2176 14.98338254 62412,6950.167,96.106,574.324,569.741,0.0
55644.0,STARLINK-5502,PAYLOAD,2024-03-30 04:33:19,14.98338453,0.0003378,69.9999,173.4197,270.9154,89.1618,-8.7776e-05,-1.14e-05,0.0,0 STARLINK-5502,1 55644U 23021S   24090.18981280 -.00001140  00000-0 -87776-4 0  9991,2 55644  69.9999 173.4197 0003378 270.9154  89.1618 14.98338453 62210,6950.167,96.106,574.38,569.684,0.0
55644.0,STARLINK-5502,PAYLOAD,2024-03-30 14:10:07,14.98339306,0.0003277,69.9999,172.4106,268.1629,91.9154,-0.00010767,-1.378e-05,0.0,0 STARLINK-5502,1 55644U 23021S   24090.59037032 -.00001378  00000-0 -10767-3 0  9991,2 55644  69.9999 172.4106 0003277 268.1629  91.9154 14.98339306 62576,6950.164,96.106,574.307,569.752,0.0
55644.0,STARLINK-5502,PAYLOAD,2024-03-31 04:35:21,14.98321826,0.0002712,70.0011,170.8979,262.2765,97.8086,3.7916e-06,-4.8e-07,0.0,0 STARLINK-5502,1 55644U 23021S   24091.19121737 -.00000048  00000-0  37916-5 0  9993,2 55644  70.0011 170.8979 0002712 262.2765  97.8086 14.98321826 62367,6950.218,96.108,573.968,570.198,0.0
55644.0,STARLINK-5502,PAYLOAD,2024-03-31 12:36:04,14.98286448,0.0002351,70.0019,170.0547,252.4132,107.677,-0.00048493,-5.867e-05,0.0,0 STARLINK-5502,1 55644U 23021S   24091.52505680 -.00005867  00000-0 -48493-3 0  9998,2 55644  70.0019 170.0547 0002351 252.4132 107.6770 14.98286448 62412,6950.328,96.11,573.827,570.559,0.0
55644.0,STARLINK-5502,PAYLOAD,2024-03-31 14:12:11,14.98305103,0.000285,70.002,169.8887,270.6449,89.4384,-0.00019204,-2.382e-05,0.0,0 STARLINK-5502,1 55644U 23021S   24091.59180044 -.00002382  00000-0 -19204-3 0  9995,2 55644  70.0020 169.8887 0002850 270.6449  89.4384 14.98305103 62726,6950.27,96.109,574.116,570.154,0.0
55644.0,STARLINK-5502,PAYLOAD,2024-03-31 15:48:18,14.98319943,0.0003214,69.9998,169.7178,268.1993,91.8798,-8.1843e-05,-1.069e-05,0.0,0 STARLINK-5502,1 55644U 23021S   24091.65854839 -.00001069  00000-0 -81843-4 0  9992,2 55644  69.9998 169.7178 0003214 268.1993  91.8798 14.98319943 62431,6950.224,96.108,574.323,569.855,0.0
55644.0,STARLINK-5502,PAYLOAD,2024-03-31 22:12:50,14.98323055,0.0003044,70.0003,169.0455,268.952,91.129,-3.6956e-05,-5.34e-06,0.0,0 STARLINK-5502,1 55644U 23021S   24091.92558728 -.00000534  00000-0 -36956-4 0  9991,2 55644  70.0003 169.0455 0003044 268.9520  91.1290 14.98323055 62773,6950.214,96.107,574.195,569.964,0.0
55644.0,STARLINK-5502,PAYLOAD,2024-04-01 12:38:02,14.98333648,0.0003164,69.9998,167.5296,273.3677,86.712,0.00010163,1.12e-05,0.0,0 STARLINK-5502,1 55644U 23021S   24092.52641853  .00001120  00000-0  10163-3 0  9991,2 55644  69.9998 167.5296 0003164 273.3677  86.7120 14.98333648 62563,6950.182,96.107,574.246,569.848,0.0
55644.0,STARLINK-5502,PAYLOAD,2024-04-01 14:14:10,14.98335693,0.0003142,69.9999,167.3612,274.2182,85.8618,0.00012227,1.366e-05,0.0,0 STARLINK-5502,1 55644U 23021S   24092.59317667  .00001366  00000-0  12227-3 0  9996,2 55644  69.9999 167.3612 0003142 274.2182  85.8618 14.98335693 62879,6950.175,96.107,574.224,569.857,0.0
55644.0,STARLINK-5502,PAYLOAD,2024-04-02 12:40:02,14.98323183,0.000308,69.9997,165.0046,273.2498,86.8308,0.00059779,7.046e-05,0.0,0 STARLINK-5502,1 55644U 23021S   24093.52780849  .00007046  00000-0  59779-3 0  9990,2 55644  69.9997 165.0046 0003080 273.2498  86.8308 14.98323183 63018,6950.214,96.107,574.22,569.938,0.0
55644.0,STARLINK-5502,PAYLOAD,2024-04-02 14:16:10,14.98324709,0.0003179,69.9997,164.8364,274.0696,86.01,0.00060591,7.143e-05,0.0,0 STARLINK-5502,1 55644U 23021S   24093.59456740  .00007143  00000-0  60591-3 0  9999,2 55644  69.9997 164.8364 0003179 274.0696  86.0100 14.98324709 62720,6950.209,96.107,574.284,569.865,0.0
55644.0,STARLINK-5502,PAYLOAD,2024-04-02 22:16:51,14.98332374,0.0002871,70.0003,163.995,271.7882,88.2948,0.00011683,1.301e-05,0.0,0 STARLINK-5502,1 55644U 23021S   24093.92837534  .00001301  00000-0  11683-3 0  9998,2 55644  70.0003 163.9950 0002871 271.7882  88.2948 14.98332374 63071,6950.186,96.107,574.046,570.055,0.0
55644.0,STARLINK-5502,PAYLOAD,2024-04-03 11:05:56,14.98335512,0.0003051,69.9996,162.6478,269.5972,90.4838,-8.8027e-05,-1.143e-05,0.0,0 STARLINK-5502,1 55644U 23021S   24094.46245592 -.00001143  00000-0 -88027-4 0  9998,2 55644  69.9996 162.6478 0003051 269.5972  90.4838 14.98335512 62851,6950.176,96.107,574.161,569.92,0.0
55644.0,STARLINK-5502,PAYLOAD,2024-04-03 14:18:12,14.98333518,0.000308,69.9999,162.3114,269.3349,90.7458,-9.8437e-05,-1.267e-05,0.0,0 STARLINK-5502,1 55644U 23021S   24094.59597688 -.00001267  00000-0 -98437-4 0  9991,2 55644  69.9999 162.3114 0003080 269.3349  90.7458 14.98333518 63177,6950.182,96.107,574.188,569.906,0.0
55644.0,STARLINK-5502,PAYLOAD,2024-04-03 22:18:52,14.98337148,0.0003114,69.9996,161.4696,269.6292,90.4511,-0.00012294,-1.56e-05,0.0,0 STARLINK-5502,1 55644U 23021S   24094.92977358 -.00001560  00000-0 -12294-3 0  9996,2 55644  69.9996 161.4696 0003114 269.6292  90.4511 14.98337148 63223,6950.171,96.107,574.2,569.872,0.0
55644.0,STARLINK-5502,PAYLOAD,2024-04-04 12:44:04,14.98339346,0.00031,69.9997,159.955,269.5049,90.5755,-0.00012915,-1.634e-05,0.0,0 STARLINK-5502,1 55644U 23021S   24095.53060879 -.00001634  00000-0 -12915-3 0  9997,2 55644  69.9997 159.9550 0003100 269.5049  90.5755 14.98339346 63019,6950.164,96.106,574.184,569.874,0.0
55644.0,STARLINK-5502,PAYLOAD,2024-04-04 14:20:12,14.98338857,0.00031,69.9997,159.7866,269.5748,90.5055,-0.0001311,-1.657e-05,0.0,0 STARLINK-5502,1 55644U 23021S   24095.59736882 -.00001657  00000-0 -13110-3 0  9990,2 55644  69.9997 159.7866 0003100 269.5748  90.5055 14.98338857 63326,6950.166,96.106,574.185,569.876,0.0
55644.0,STARLINK-5502,PAYLOAD,2024-04-05 12:46:04,14.98335636,0.0003209,69.9992,157.4303,268.9557,91.1234,8.9934e-05,9.8e-06,0.0,0 STARLINK-5502,1 55644U 23021S   24096.53200140  .00000980  00000-0  89934-4 0  9992,2 55644  69.9992 157.4303 0003209 268.9557  91.1234 14.98335636 63163,6950.175,96.107,574.271,569.81,0.0
55644.0,STARLINK-5502,PAYLOAD,2024-04-05 20:46:45,14.98330165,0.0003162,69.9993,156.5887,269.1908,90.8889,3.416e-05,3.15e-06,0.0,0 STARLINK-5502,1 55644U 23021S   24096.86580549  .00000315  00000-0  34160-4 0  9995,2 55644  69.9993 156.5887 0003162 269.1908  90.8889 14.98330165 63515,6950.192,96.107,574.255,569.86,0.0
55644.0,STARLINK-5502,PAYLOAD,2024-04-06 09:35:50,14.98328957,0.000308,69.9995,155.2422,270.0173,90.0633,-1.2085e-05,-2.37e-06,0.0,0 STARLINK-5502,1 55644U 23021S   24097.39988750 -.00000237  00000-0 -12085-4 0  9997,2 55644  69.9995 155.2422 0003080 270.0173  90.0633 14.98328957 63595,6950.196,96.107,574.202,569.92,0.0
55644.0,STARLINK-5502,PAYLOAD,2024-04-06 20:48:46,14.98329354,0.000307,69.9995,154.0641,269.9867,90.094,-2.1253e-05,-3.47e-06,0.0,0 STARLINK-5502,1 55644U 23021S   24097.86720743 -.00000347  00000-0 -21253-4 0  9994,2 55644  69.9995 154.0641 0003070 269.9867  90.0940 14.98329354 63369,6950.195,96.107,574.194,569.926,0.0
55644.0,STARLINK-5502,PAYLOAD,2024-04-07 09:37:51,14.98325494,0.0003017,69.9995,152.7177,269.5659,90.5155,-0.00011554,-1.471e-05,0.0,0 STARLINK-5502,1 55644U 23021S   24098.40129319 -.00001471  00000-0 -11554-3 0  9998,2 55644  69.9995 152.7177 0003017 269.5659  90.5155 14.98325494 63740,6950.207,96.107,574.169,569.975,0.0
55644.0,STARLINK-5502,PAYLOAD,2024-04-07 20:50:47,14.983279,0.0003047,69.9992,151.5393,269.8358,90.2452,-7.0217e-05,-9.31e-06,0.0,0 STARLINK-5502,1 55644U 23021S   24098.86861099 -.00000931  00000-0 -70217-4 0  9998,2 55644  69.9992 151.5393 0003047 269.8358  90.2452 14.98327900 63512,6950.199,96.107,574.182,569.947,0.0
55644.0,STARLINK-5502,PAYLOAD,2024-04-08 09:39:52,14.98331051,0.0003027,69.9995,150.1927,271.3076,88.7736,7.2424e-05,7.71e-06,0.0,0 STARLINK-5502,1 55644U 23021S   24099.40268553  .00000771  00000-0  72424-4 0  9997,2 55644  69.9995 150.1927 0003027 271.3076  88.7736 14.98331051 63896,6950.19,96.107,574.158,569.951,0.0
55644.0,STARLINK-5502,PAYLOAD,2024-04-08 20:52:48,14.98336035,0.0003621,69.9983,149.0137,270.1038,89.9706,6.4224e-05,6.73e-06,0.0,0 STARLINK-5502,1 55644U 23021S   24099.87000083  .00000673  00000-0  64224-4 0  9990,2 55644  69.9983 149.0137 0003621 270.1038  89.9706 14.98336035 63660,6950.174,96.107,574.556,569.523,0.0
